[{"OBJECT_NAME":"STARLINK-5998","OBJECT_ID":"2023-064W","EPOCH":"2026-03-09T15:26:25.833984","MEAN_MOTION":14.98347142,"ECCENTRICITY":0.0002898,"INCLINATION":70.0004,"RA_OF_ASC_NODE":144.392,"ARG_OF_PERICENTER":270.8108,"MEAN_ANOMALY":89.2719,"EPHEMERIS_TYPE":0,"CLASSIFICATION_TYPE":"U","NORAD_CAT_ID":56468,"ELEMENT_SET_NO":999,"REV_AT_EPOCH":15524,"BSTAR":-0.00030477,"MEAN_MOTION_DOT":-3.729e-5,"MEAN_MOTION_DDOT":0},{"OBJECT_NAME":"DELTA 1 DEB","OBJECT_ID":"1972-058BG","EPOCH":"2026-03-09T20:01:49.581696","MEAN_MOTION":14.88535429,"ECCENTRICITY":0.00965988,"INCLINATION":98.8237,"RA_OF_ASC_NODE":167.9558,"ARG_OF_PERICENTER":346.289,"MEAN_ANOMALY":13.5703,"EPHEMERIS_TYPE":0,"CLASSIFICATION_TYPE":"U","NORAD_CAT_ID":7890,"ELEMENT_SET_NO":999,"REV_AT_EPOCH":62566,"BSTAR":0.0011014398,"MEAN_MOTION_DOT":0.00011112,"MEAN_MOTION_DDOT":0}]
